#aV2022 10 26  0  0  0.00000000     288 DD+AD WGS84 FIT  NGA
## 2233 259200.00000000   300.00000000 59878 0.0000000000000
+   32     1  2  3  4  5  6  7  8  9 10 11 12 13 14 15 16 17
+         18 19 20 21 22 23 24 25 26 27 28 29 30 31 32  0  0
+          0  0  0  0  0  0  0  0  0  0  0  0  0  0  0  0  0
+          0  0  0  0  0  0  0  0  0  0  0  0  0  0  0  0  0
+          0  0  0  0  0  0  0  0  0  0  0  0  0  0  0  0  0
++         2  2  2  2  2  2  2  2  2  2  2  2  2  2  2  2  2
++         2  2  2  2  2  2  2  2  2  2  2  2  2  2  2  0  0
++         0  0  0  0  0  0  0  0  0  0  0  0  0  0  0  0  0
++         0  0  0  0  0  0  0  0  0  0  0  0  0  0  0  0  0
++         0  0  0  0  0  0  0  0  0  0  0  0  0  0  0  0  0
%c cc cc ccc ccc cccc cccc cccc cccc ccccc ccccc ccccc ccccc
%c cc cc ccc ccc cccc cccc cccc cccc ccccc ccccc ccccc ccccc
%f  0.0000000  0.000000000  0.00000000000  0.000000000000000
%f  0.0000000  0.000000000  0.00000000000  0.000000000000000
%i    0    0    0    0      0      0      0      0         0
%i    0    0    0    0      0      0      0      0         0
/*      NGA, ST. LOUIS,MO.                                  
/*   EPHEMERIS COMPUTED FROM 2 DAYS OF DATA                 
/*   EPOCHA v8 SMOOTHER                                     
/*   G2139 IERS2010 SATIGS SATAPC                           
*  2022 10 26  0 35  0.00000000
P  1    754.733365 -15480.957194 -21825.265040    261.728675                    
V  1  25605.751551  -8458.198437   7313.497199     -0.059584                    
P  2   -522.263681  16548.362447  21458.733799   -640.789728                    
V  2 -23547.260824  10309.049052  -8616.350331      0.016507                    
P  3  -7003.230893 -20035.229136 -16160.850591   -368.052946                    
V  3  16504.245881  11764.746290 -21801.600835     -0.035061                    
P  4     97.354312 -25493.320023   7266.912271    -97.537032                    
V  4   4538.138398  -8507.393787 -30009.572198      0.063127                    
P  5  -4954.208552  14830.637169  21278.158495   -101.802308                    
V  5 -22222.916136 -16114.521651   6125.302013     -0.014681                    
P  6 -25490.552053   6014.265278  -4582.929124    501.429121                    
V  6   4896.014780  -3730.469426 -31610.361668      0.102932                    
P  7 -15529.610372  -9469.270248  19932.585790    294.888103                    
V  7  22484.630419  -9230.562924  12932.191247     -0.041208                    
P  8   6049.122346 -25444.113256   3264.232035    -90.642883                    
V  8   2439.363725   4643.938411  31643.486317     -0.019470                    
P  9  -8806.598945 -18962.566312  16276.048449   -278.081370                    
V  9   5110.561372 -20316.450510 -20843.061898      0.053406                    
P 10  22619.736152   9678.945125 -10249.649555     -9.083479                    
V 10   8914.940532   9805.248975  28199.633175     -0.016613                    
P 11 -22551.007000  12105.159788   7028.177977    -30.426576                    
V 11  -9291.724897    170.765559 -30162.013965     -0.049743                    
P 12   5043.908503  20506.244248 -16440.929945   -296.579424                    
V 12 -15778.727468 -12901.452431 -21177.677080     -0.044846                    
P 13 -13141.989599  21060.512620   9006.089537    412.833978                    
V 13   1126.763116 -11942.192735  29193.963171      0.069648                    
P 14 -22322.263046 -11608.149540  -8677.149507    -91.062964                    
V 14  -6366.688280  -9406.193736  28820.905368      0.043107                    
P 15  -2822.862998  26082.821603   2517.546090    -17.845514                    
V 15  -3892.479648  -3911.899882  31040.178475      0.031520                    
P 16  11648.443887  -9462.116368  21651.526252   -526.621795                    
V 16  19984.428066  19788.407309  -1628.726685     -0.003463                    
P 17 -13700.911082  -5535.094259 -21625.881092    672.163143                    
V 17   6791.572865 -27662.767436   2787.286855      0.034766                    
P 18  16618.557221   8025.108667  19152.617531      1.615266                    
V 18 -22528.551234   9020.756203  15628.409763     -0.136229                    
P 19 -16081.802470   6010.191327 -20428.529188    228.710571                    
V 19   6011.914580 -24745.483042 -12402.553052      0.050494                    
P 20 -16873.416466   6373.205391  19435.184676    475.390092                    
V 20 -20590.469102 -13864.348383 -13565.991098     -0.030887                    
P 21   9474.200074 -17337.887499 -16766.563021    157.356931                    
V 21  21633.311902  -7487.933994  20012.331826     -0.007725                    
P 22  15842.901137  -9598.116143 -18548.881526    352.475313                    
V 22  -4547.481828  24121.372695 -16177.571267      0.070060                    
P 23  21057.001154  16308.145126   -203.049910     -1.129559                    
V 23  -1281.987440   2037.534282  31881.003728     -0.000946                    
P 24  -4044.922379  17787.037027 -19497.115092     85.501675                    
V 24 -22715.166153   8749.067049  13337.813553     -0.150510                    
P 25  15612.052600  20177.965988  -8173.477349    386.133730                    
V 25  -9265.001984  -4323.608338 -29158.169076      0.038280                    
P 26  19583.722496  -1984.991359  17885.511542    233.738467                    
V 26  17372.591736  14964.180049 -16946.035324      0.012557                    
P 27  12501.152077 -18827.813905  13403.956666    191.434116                    
V 27   -628.398161  17666.016044  25383.341631     -0.071850                    
P 28 -16781.433626  12232.079323 -15910.907635    323.957558                    
V 28 -21322.577001   -549.284025  21643.842975     -0.055666                    
P 29   5753.491549  20540.930686  15728.647562   -562.449349                    
V 29  -6457.222261  19045.788773 -22527.853194     -0.028584                    
P 30 -23675.659243  -1226.375564  12319.418335   -537.122162                    
V 30  13658.606073  -7745.346634  25414.201000      0.001264                    
P 31  25850.613472  -6300.372418  -3455.476416   -198.037377                    
V 31  -3094.175656   3764.563370 -30933.026111     -0.012974                    
P 32  15085.511792   1884.902455 -21626.144685   -275.069231                    
V 32  -4317.541121  27493.711573   -804.578427     -0.121830                    
EOF
